STARLINK-36506          
1 67414U 26005L   26070.81456538  .00025160  00000+0  91980-3 0  9993
2 67414  43.0012 225.7910 0002141 284.2754  75.7860 15.27612043  9025
STARLINK-36468          
1 67415U 26005M   26070.46208455  .00033892  00000+0  12347-2 0  9998
2 67415  42.9963 228.3100 0000825 298.1210  61.9558 15.27599879  8961
STARLINK-36487          
1 67416U 26005N   26070.78391484  .00073802  00000+0  25980-2 0  9991
2 67416  43.0013 226.4278 0002968 293.5511  66.5028 15.28408077  9018
STARLINK-36374          
1 67417U 26005P   26070.83641127  .00025170  00000+0  92039-3 0  9995
2 67417  43.0018 225.9529 0002891 250.5190 109.5349 15.27601749  9023
STARLINK-36455          
1 67418U 26005Q   26070.82889896  .00027021  00000+0  96202-3 0  9995
2 67418  43.0012 225.9001 0002062 277.5565  82.5053 15.28448102  9023
STARLINK-36424          
1 67419U 26005R   26070.81352332  .00021802  00000+0  77855-3 0  9999
2 67419  43.0010 225.7869 0002273 280.4155  79.6440 15.28449476  9026
STARLINK-35564          
1 67420U 26005S   26070.70307008  .00026271  00000+0  96000-3 0  9997
2 67420  42.9990 226.6708 0001789 270.3286  89.7361 15.27606825  9003
STARLINK-36431          
1 67421U 26005T   26070.83335647  .00059193  00000+0  21453-2 0  9990
2 67421  42.9991 226.2014 0001249 280.6467 330.5920 15.27550523  5790
STARLINK-36418          
1 67422U 26005U   26070.80557422  .00030643  00000+0  11180-2 0  9990
2 67422  43.0017 225.7250 0002139 285.2654  74.7961 15.27592539  9021
STARLINK-36465          
1 67423U 26005V   26070.51847544  .00020780  00000+0  76226-3 0  9990
2 67423  42.9967 227.8750 0002231 273.8040  86.2556 15.27590257  8973
STARLINK-36362          
1 67424U 26005W   26070.70313710  .00011890  00000+0  42965-3 0  9990
2 67424  42.9970 226.6793 0001420 274.9460  85.1230 15.28430866  9001
STARLINK-36447          
1 67425U 26005X   26070.49663574  .00025009  00000+0  91474-3 0  9999
2 67425  42.9960 227.7032 0001015 206.5379 153.5420 15.27598180  8978
STARLINK-36146          
1 67426U 26005Y   26070.79287022  .00040246  00000+0  14630-2 0  9991
2 67426  42.9994 226.4885 0001719 274.5921  85.4734 15.27602328  9003
STARLINK-36459          
1 67427U 26005Z   26070.78515824  .00032261  00000+0  11756-2 0  9999
2 67427  43.0010 226.4302 0002153 268.2397  91.8208 15.27611846  9001
STARLINK-36464          
1 67428U 26005AA  26070.69407478  .00026913  00000+0  98327-3 0  9992
2 67428  43.0022 226.6076 0002503 287.2527  72.8051 15.27601608  8997
STARLINK-36513          
1 67429U 26005AB  26070.81843821  .00031157  00000+0  11356-2 0  9995
2 67429  43.0026 225.8163 0001864 266.2135  93.8503 15.27618668  9014
STARLINK-36515          
1 67430U 26005AC  26070.44795073  .00032486  00000+0  11844-2 0  9999
2 67430  42.9975 228.1983 0001841 262.8919  97.1723 15.27591459  8951
STARLINK-36443          
1 67431U 26005AD  26070.48597395  .00031920  00000+0  11344-2 0  9998
2 67431  43.0001 227.6179 0002294 270.9719  89.0870 15.28435534  8973
STARLINK-36460          
1 67432U 26005AE  26070.73006396  .00026759  00000+0  97698-3 0  9994
2 67432  42.9992 226.8690 0001749 281.4596  78.6060 15.27627486  8999
YAOGAN-50 01            
1 67433U 26006A   26070.72009718  .00000328  00000+0  12607-3 0  9997
2 67433 142.0344 104.7577 0001131 272.2077  87.8512 13.83251555  7935
HULIANWANG DIGUI-137    
1 67435U 26007A   26069.08147402 -.00000062  00000+0  12620-3 0  9991
2 67435  50.0063  81.3663 0000401  47.7849 312.3060 13.35676519  7606
HULIANWANG DIGUI-138    
1 67436U 26007B   26070.07134060 -.00000062  00000+0  12644-3 0  9995
2 67436  50.0154  77.9194 0004646 180.0663 180.0212 13.34867017  7735
HULIANWANG DIGUI-139    
1 67437U 26007C   26069.08978391 -.00000049  00000+0  15059-3 0  9996
2 67437  50.0019  81.3821 0000721  56.9006 303.1938 13.35405100  7605
HULIANWANG DIGUI-140    
1 67438U 26007D   26070.07878618 -.00000052  00000+0  14644-3 0  9992
2 67438  50.0156  77.9595 0003111 186.6137 173.4697 13.34642302  7739
HULIANWANG DIGUI-141    
1 67439U 26007E   26068.99947986 -.00000060  00000+0  12925-3 0  9995
2 67439  50.0168  81.6025 0003500 335.5768  24.4941 13.36202806  7594
HULIANWANG DIGUI-142    
1 67440U 26007F   26070.78840743 -.00000135  00000+0 -19094-4 0  9999
2 67440  50.0078  75.0805 0000706  31.9796 328.1121 13.34288022  7835
HULIANWANG DIGUI-143    
1 67441U 26007G   26069.05942053 -.00000061  00000+0  12752-3 0  9995
2 67441  50.0139  81.2677 0002692 289.1576  70.9008 13.36377527  7601
HULIANWANG DIGUI-144    
1 67442U 26007H   26069.12619214 -.00000070  00000+0  10930-3 0  9990
2 67442  50.0085  80.9519 0000702 302.9843  57.0964 13.36385059  7611
HULIANWANG DIGUI-145    
1 67443U 26007J   26062.33708830 -.00000024  00000+0  17842-3 0  9998
2 67443  50.0026 105.7349 0002393 195.2427 164.8380 13.44957013  6705
STARLINK-36542          
1 67445U 26008A   26070.41999792  .00043939  00000+0  15954-2 0  9990
2 67445  42.9992 195.7348 0001622 261.3281  98.7387 15.27608743  9839
STARLINK-36539          
1 67446U 26008B   26070.76106240  .00034279  00000+0  12485-2 0  9990
2 67446  43.0003 193.9936 0001678 277.0289  83.0371 15.27603495  9885
STARLINK-36440          
1 67447U 26008C   26070.37244833  .00043248  00000+0  15706-2 0  9994
2 67447  42.9942 195.3553 0000881 234.1347 125.9423 15.27607017  9834
STARLINK-36423          
1 67448U 26008D   26070.65583821  .00042254  00000+0  15346-2 0  9995
2 67448  43.0003 194.0652 0001691 268.5624  91.5034 15.27615461  9872
STARLINK-36519          
1 67449U 26008E   26070.60587262  .00031521  00000+0  11500-2 0  9997
2 67449  43.0064 194.5469 0003184 294.4134  65.6385 15.27581046  9865
STARLINK-36525          
1 67450U 26008F   26070.40585074  .00030910  00000+0  11263-2 0  9993
2 67450  42.9988 195.6256 0001311 254.8028 105.2679 15.27631367  9834
STARLINK-36511          
1 67451U 26008G   26070.62000873  .00034566  00000+0  12590-2 0  9992
2 67451  43.0023 194.6587 0001994 266.5183  93.5440 15.27597970  9861
STARLINK-36524          
1 67452U 26008H   26070.62771625  .00029156  00000+0  10641-2 0  9997
2 67452  43.0000 194.7103 0001458 266.4993  93.5692 15.27603757  9865
STARLINK-36518          
1 67453U 26008J   26070.73792300  .00026028  00000+0  95111-3 0  9994
2 67453  43.0025 193.7962 0002213 269.0924  90.9674 15.27611206  9889
STARLINK-36517          
1 67454U 26008K   26070.61358333  .00025675  00000+0  93849-3 0  9999
2 67454  42.9994 194.6099 0001433 266.2037  93.8651 15.27607335  9864
STARLINK-36516          
1 67455U 26008L   26070.83335647  .00055836  00000+0  20259-2 0  9993
2 67455  42.9996 192.9207 0001391 260.6327  53.4049 15.27537654  5979
STARLINK-36493          
1 67456U 26008M   26070.38787355  .00020835  00000+0  76458-3 0  9995
2 67456  42.9980 195.4856 0001035 250.2546 109.8194 15.27576227  9839
STARLINK-36529          
1 67457U 26008N   26070.60974069  .00032376  00000+0  11815-2 0  9999
2 67457  43.0025 194.5710 0001612 261.8674  98.1995 15.27562853  9864
STARLINK-36528          
1 67458U 26008P   26070.76219587  .00038558  00000+0  14017-2 0  9999
2 67458  42.9981 193.1228 0001600 264.4740  95.5929 15.27619175  9894
STARLINK-36546          
1 67459U 26008Q   26070.36232052  .00036390  00000+0  13248-2 0  9995
2 67459  42.9991 196.1539 0001067 272.4163  87.6566 15.27595017  9829
STARLINK-36523          
1 67460U 26008R   26070.61743714  .00039309  00000+0  14296-2 0  9994
2 67460  42.9989 194.6278 0000903 242.2931 117.7829 15.27597253  9862
STARLINK-36522          
1 67461U 26008S   26070.39945004  .00008430  00000+0  31566-3 0  9997
2 67461  42.9989 195.5753 0001051 265.4519  94.6213 15.27565167  9831
STARLINK-36504          
1 67462U 26008T   26070.39557685  .00007256  00000+0  27278-3 0  9992
2 67462  42.9997 195.5352 0001309 257.8074 102.2631 15.27597303  9830
STARLINK-36505          
1 67463U 26008U   26070.39172435  .00031622  00000+0  11526-2 0  9991
2 67463  42.9932 195.5042 0001340 161.7377 198.3523 15.27613010  9830
STARLINK-36421          
1 67464U 26008V   26070.63527939  .00026938  00000+0  98421-3 0  9996
2 67464  43.0007 193.9007 0001774 278.8198  81.2453 15.27601336  9875
STARLINK-36437          
1 67465U 26008W   26070.64298993  .00022768  00000+0  83405-3 0  9996
2 67465  43.0041 193.9490 0002502 273.0712  86.9854 15.27590557  9878
STARLINK-36520          
1 67466U 26008X   26070.68667640  .00037120  00000+0  13508-2 0  9994
2 67466  42.9995 194.2870 0001588 261.6597  98.4074 15.27600242  9873
STARLINK-36425          
1 67467U 26008Y   26070.61486712  .00028824  00000+0  10523-2 0  9992
2 67467  43.0023 194.6181 0002889 273.0979  86.9542 15.27597115  9868
STARLINK-36414          
1 67468U 26008Z   26070.63913617  .00035562  00000+0  12949-2 0  9995
2 67468  42.9984 193.9124 0001308 282.4262  77.6443 15.27595983  9875
STARLINK-36441          
1 67469U 26008AA  26070.61871925  .00033723  00000+0  12286-2 0  9990
2 67469  43.0002 194.6295 0002238 271.2578  88.8017 15.27599891  9867
STARLINK-36454          
1 67470U 26008AB  26070.38531377  .00033506  00000+0  12223-2 0  9990
2 67470  42.9964 195.4508 0000961 252.9691 107.1055 15.27561623  9839
STARLINK-36334          
1 67471U 26008AC  26070.69052776  .00035719  00000+0  13003-2 0  9991
2 67471  42.9991 194.3043 0001436 279.1125  80.9564 15.27603702  9875
STARLINK-36269          
1 67472U 26008AD  26070.61100940  .00055372  00000+0  20032-2 0  9998
2 67472  43.0008 194.5689 0001507 262.1051  97.9629 15.27636390  9862
STARLINK-36408          
1 67473U 26008AE  26070.73407787  .00036939  00000+0  13448-2 0  9992
2 67473  43.0022 193.7758 0001803 293.8192  66.2471 15.27587901  9882
ALSAT-3A                
1 67474U 26009A   26070.84180542  .00006988  00000+0  29124-3 0  9993
2 67474  97.4616 145.3488 0013349  70.5631 289.7047 15.23942882  8456
